H1 CPF  1  DLR 2021 03 23 10  5822 technosat            
H2  1704205 6203    42829 2021 03 23 00 00 00 2021 03 30 00 00 00    60 1 1  0 0 0
H9
10 0 59302  36000.000000  0       3145924.505      -1649153.549       5980128.450
10 0 59302  36060.000000  0       2743946.515      -1584897.194       6191314.144
10 0 59302  36120.000000  0       2330976.113      -1510374.931       6376136.485
10 0 59302  36180.000000  0       1908850.141      -1425814.982       6533814.249
10 0 59302  36240.000000  0       1479441.142      -1331504.106       6663682.136
10 0 59302  36300.000000  0       1044648.831      -1227786.608       6765193.431
10 0 59302  36360.000000  0        606391.552      -1115063.021       6837922.100
10 0 59302  36420.000000  0        166597.718       -993788.516       6881564.434
10 0 59302  36480.000000  0       -272802.768       -864471.001       6895940.143
10 0 59302  36540.000000  0       -709886.986       -727668.977       6880992.999
10 0 59302  36600.000000  0      -1142747.484       -583989.083       6836791.014
10 0 59302  36660.000000  0      -1569500.644       -434083.357       6763526.052
10 0 59302  36720.000000  0      -1988294.877       -278646.255       6661512.974
10 0 59302  36780.000000  0      -2397318.701       -118411.426       6531188.344
10 0 59302  36840.000000  0      -2794808.644         45851.768       6373108.602
10 0 59302  36900.000000  0      -3179056.923        213341.929       6187947.754
10 0 59302  36960.000000  0      -3548418.896        383229.498       5976494.611
10 0 59302  37020.000000  0      -3901320.281        554660.832       5739649.485
10 0 59302  37080.000000  0      -4236263.991        726762.437       5478420.397
10 0 59302  37140.000000  0      -4551836.649        898645.355       5193918.884
10 0 59302  37200.000000  0      -4846714.762       1069409.719       4887355.345
10 0 59302  37260.000000  0      -5119670.492       1238149.395       4560033.883
10 0 59302  37320.000000  0      -5369576.921       1403956.686       4213346.737
10 0 59302  37380.000000  0      -5595412.872       1565927.113       3848768.361
10 0 59302  37440.000000  0      -5796267.253       1723164.234       3467849.136
10 0 59302  37500.000000  0      -5971342.894       1874784.453       3072208.716
10 0 59302  37560.000000  0      -6119959.873       2019921.816       2663529.064
10 0 59302  37620.000000  0      -6241558.278       2157732.750       2243547.193
10 0 59302  37680.000000  0      -6335700.434       2287400.751       1814047.646
10 0 59302  37740.000000  0      -6402072.536       2408140.973       1376854.692
10 0 59302  37800.000000  0      -6440485.613       2519204.662        933824.319
10 0 59302  37860.000000  0      -6450875.877       2619883.411        486836.162
10 0 59302  37920.000000  0      -6433304.540       2709513.225         37785.327
10 0 59302  37980.000000  0      -6387957.000       2787478.400       -411425.889
10 0 59302  38040.000000  0      -6315141.392       2853215.125       -858896.251
10 0 59302  38100.000000  0      -6215286.598       2906214.856      -1302733.789
10 0 59302  38160.000000  0      -6088939.710       2946027.433      -1741063.960
10 0 59302  38220.000000  0      -5936762.909       2972263.906      -2172037.769
10 0 59302  38280.000000  0      -5759529.712       2984599.008      -2593839.651
10 0 59302  38340.000000  0      -5558120.810       2982773.302      -3004695.118
10 0 59302  38400.000000  0      -5333519.453       2966595.002      -3402878.204
10 0 59302  38460.000000  0      -5086806.359       2935941.467      -3786718.639
10 0 59302  38520.000000  0      -4819154.231       2890760.365      -4154608.691
10 0 59302  38580.000000  0      -4531821.941       2831070.468      -4505009.696
10 0 59302  38640.000000  0      -4226148.359       2756962.087      -4836458.245
10 0 59302  38700.000000  0      -3903545.897       2668597.179      -5147571.959
10 0 59302  38760.000000  0      -3565493.846       2566209.147      -5437054.871
10 0 59302  38820.000000  0      -3213531.546       2450102.290      -5703702.444
10 0 59302  38880.000000  0      -2849251.365       2320650.940      -5946406.279
10 0 59302  38940.000000  0      -2474291.444       2178298.257      -6164158.400
10 0 59302  39000.000000  0      -2090328.299       2023554.674      -6356055.065
10 0 59302  39060.000000  0      -1699069.380       1856996.029      -6521300.058
10 0 59302  39120.000000  0      -1302245.693       1679261.457      -6659207.622
10 0 59302  39180.000000  0       -901604.339       1491050.969      -6769205.072
10 0 59302  39240.000000  0       -498900.986       1293122.711      -6850834.884
10 0 59302  39300.000000  0        -95892.475       1086290.014      -6903756.315
10 0 59302  39360.000000  0        305670.488        871418.200      -6927746.778
10 0 59302  39420.000000  0        704050.728        649421.096      -6922702.847
10 0 59302  39480.000000  0       1097531.981        421257.262      -6888640.719
10 0 59302  39540.000000  0       1484426.073        187925.981      -6825696.152
10 0 59302  39600.000000  0       1863079.921        -49536.950      -6734124.009
10 0 59302  39660.000000  0       2231882.360       -290063.614      -6614297.442
10 0 59302  39720.000000  0       2589270.901       -532558.593      -6466706.714
10 0 59302  39780.000000  0       2933738.325       -775903.815      -6291957.436
10 0 59302  39840.000000  0       3263838.925      -1018963.503      -6090768.346
10 0 59302  39900.000000  0       3578194.524      -1260589.252      -5863968.812
10 0 59302  39960.000000  0       3875500.350      -1499625.327      -5612495.918
10 0 59302  40020.000000  0       4154530.638      -1734914.127      -5337391.001
10 0 59302  40080.000000  0       4414143.861      -1965301.715      -5039795.739
10 0 59302  40140.000000  0       4653287.630      -2189643.403      -4720947.802
10 0 59302  40200.000000  0       4871003.219      -2406809.402      -4382176.095
10 0 59302  40260.000000  0       5066429.718      -2615690.466      -4024895.589
10 0 59302  40320.000000  0       5238807.799      -2815203.553      -3650601.725
10 0 59302  40380.000000  0       5387483.050      -3004297.435      -3260864.414
10 0 59302  40440.000000  0       5511908.850      -3181958.239      -2857321.625
10 0 59302  40500.000000  0       5611648.736      -3347214.893      -2441672.591
10 0 59302  40560.000000  0       5686378.214      -3499144.392      -2015670.717
10 0 59302  40620.000000  0       5735886.122      -3636876.931      -1581116.235
10 0 59302  40680.000000  0       5760075.461      -3759600.874      -1139848.503
10 0 59302  40740.000000  0       5758963.598      -3866567.427       -693738.061
10 0 59302  40800.000000  0       5732681.969      -3957095.034       -244678.549
10 0 59302  40860.000000  0       5681475.235      -4030573.511        205421.575
10 0 59302  40920.000000  0       5605699.810      -4086467.866        654647.447
10 0 59302  40980.000000  0       5505821.849      -4124321.765       1101086.253
10 0 59302  41040.000000  0       5382414.684      -4143760.568       1542835.771
10 0 59302  41100.000000  0       5236155.678      -4144493.888       1978012.841
10 0 59302  41160.000000  0       5067822.579      -4126317.766       2404761.667
10 0 59302  41220.000000  0       4878289.416      -4089116.449       2821262.030
10 0 59302  41280.000000  0       4668521.931      -4032863.694       3225737.339
10 0 59302  41340.000000  0       4439572.598      -3957623.620       3616462.457
10 0 59302  41400.000000  0       4192575.258      -3863551.146       3991771.303
10 0 59302  41460.000000  0       3928739.301      -3750891.981       4350064.200
10 0 59302  41520.000000  0       3649343.474      -3619982.062       4689814.868
10 0 59302  41580.000000  0       3355729.435      -3471246.530       5009576.947
10 0 59302  41640.000000  0       3049295.150      -3305198.312       5307990.179
10 0 59302  41700.000000  0       2731488.049      -3122436.266       5583786.255
10 0 59302  41760.000000  0       2403797.917      -2923642.858       5835794.179
10 0 59302  41820.000000  0       2067749.691      -2709581.468       6062945.126
10 0 59302  41880.000000  0       1724896.170      -2481093.304       6264276.837
10 0 59302  41940.000000  0       1376810.703      -2239093.961       6438937.559
10 0 59302  42000.000000  0       1025079.802      -1984569.589       6586189.527
10 0 59302  42060.000000  0        671295.783      -1718572.727       6705411.904
10 0 59302  42120.000000  0        317049.485      -1442217.834       6796103.223
10 0 59302  42180.000000  0        -36076.956      -1156676.491       6857883.385
10 0 59302  42240.000000  0       -386517.230       -863172.295       6890495.063
10 0 59302  42300.000000  0       -732727.801       -562975.580       6893804.664
10 0 59302  42360.000000  0      -1073194.764       -257397.843       6867802.823
10 0 59302  42420.000000  0      -1406440.496         52214.059       6812604.344
10 0 59302  42480.000000  0      -1731030.086        364483.893       6728447.650
10 0 59302  42540.000000  0      -2045577.534        678012.212       6615693.758
10 0 59302  42600.000000  0      -2348751.731        991382.659       6474824.736
10 0 59302  42660.000000  0      -2639282.120       1303168.389       6306441.664
10 0 59302  42720.000000  0      -2915964.069       1611938.602       6111262.151
10 0 59302  42780.000000  0      -3177663.942       1916265.137       5890117.382
10 0 59302  42840.000000  0      -3423323.869       2214729.152       5643948.688
10 0 59302  42900.000000  0      -3651966.134       2505927.830       5373803.600
10 0 59302  42960.000000  0      -3862697.164       2788481.048       5080831.425
10 0 59302  43020.000000  0      -4054711.114       3061037.977       4766278.406
10 0 59302  43080.000000  0      -4227293.085       3322283.629       4431482.489
10 0 59302  43140.000000  0      -4379821.878       3570945.283       4077867.607
99
